{
    "links": {
        "self": "http://www.neowsapp.com/rest/v1/neo/54053932?api_key=iIulBulltgU6a56xZRHN4H3l9WmuAYTsLGpBGhQ2"
    },
    "id": "54053932",
    "neo_reference_id": "54053932",
    "name": "(2020 RW3)",
    "designation": "2020 RW3",
    "nasa_jpl_url": "http://ssd.jpl.nasa.gov/sbdb.cgi?sstr=54053932",
    "absolute_magnitude_h": 26.304,
    "estimated_diameter": {
        "kilometers": {
            "estimated_diameter_min": 0.0145799145,
            "estimated_diameter_max": 0.0326016799
        },
        "meters": {
            "estimated_diameter_min": 14.5799144806,
            "estimated_diameter_max": 32.6016798847
        },
        "miles": {
            "estimated_diameter_min": 0.009059536,
            "estimated_diameter_max": 0.0202577384
        },
        "feet": {
            "estimated_diameter_min": 47.8343666244,
            "estimated_diameter_max": 106.9608954328
        }
    },
    "is_potentially_hazardous_asteroid": false,
    "close_approach_data": [
        {
            "close_approach_date": "1959-09-08",
            "close_approach_date_full": "1959-Sep-08 16:53",
            "epoch_date_close_approach": -325494420000,
            "relative_velocity": {
                "kilometers_per_second": "14.7838246156",
                "kilometers_per_hour": "53221.7686160916",
                "miles_per_hour": "33069.9372825931"
            },
            "miss_distance": {
                "astronomical": "0.0953558674",
                "lunar": "37.0934324186",
                "kilometers": "14265034.655042438",
                "miles": "8863881.5109961244"
            },
            "orbiting_body": "Earth"
        },
        {
            "close_approach_date": "2020-09-16",
            "close_approach_date_full": "2020-Sep-16 20:31",
            "epoch_date_close_approach": 1600288260000,
            "relative_velocity": {
                "kilometers_per_second": "12.0102631086",
                "kilometers_per_hour": "43236.9471909942",
                "miles_per_hour": "26865.7575476486"
            },
            "miss_distance": {
                "astronomical": "0.0172416367",
                "lunar": "6.7069966763",
                "kilometers": "2579312.125633829",
                "miles": "1602710.2362076802"
            },
            "orbiting_body": "Earth"
        }
    ],
    "orbital_data": {
        "orbit_id": "4",
        "orbit_determination_date": "2020-10-11 07:09:46",
        "first_observation_date": "2020-09-11",
        "last_observation_date": "2020-09-15",
        "data_arc_in_days": 4,
        "observations_used": 43,
        "orbit_uncertainty": "8",
        "minimum_orbit_intersection": ".0170276",
        "jupiter_tisserand_invariant": "4.004",
        "epoch_osculation": "2459105.5",
        "eccentricity": ".5056884310815221",
        "semi_major_axis": "1.723424297896105",
        "inclination": "7.221833944091235",
        "ascending_node_longitude": "346.7022697017555",
        "orbital_period": "826.3932177981203",
        "perihelion_distance": ".8519085686052499",
        "perihelion_argument": "65.16308538973257",
        "aphelion_distance": "2.59494002718696",
        "perihelion_time": "2459151.699328965800",
        "mean_anomaly": "339.8742801011819",
        "mean_motion": ".4356279701317012",
        "equinox": "J2000",
        "orbit_class": {
            "orbit_class_type": "APO",
            "orbit_class_description": "Near-Earth asteroid orbits which cross the Earth’s orbit similar to that of 1862 Apollo",
            "orbit_class_range": "a (semi-major axis) > 1.0 AU; q (perihelion) < 1.017 AU"
        }
    },
    "is_sentry_object": false
}